[
  {
    "OBJECT_NAME": "STARLINK-1294",
    "OBJECT_ID": "20025W",
    "EPOCH": "2025-11-11T03:01:22.425600",
    "MEAN_MOTION": 15.61587694,
    "ECCENTRICITY": 0.0007574,
    "INCLINATION": 53.047,
    "RA_OF_ASC_NODE": 207.8969,
    "ARG_OF_PERICENTER": 91.5214,
    "MEAN_ANOMALY": 268.6667,
    "EPHEMERIS_TYPE": 0,
    "CLASSIFICATION_TYPE": "U",
    "NORAD_CAT_ID": 45551,
    "ELEMENT_SET_NO": 999,
    "REV_AT_EPOCH": 30822,
    "BSTAR": 0.00097934,
    "MEAN_MOTION_DOT": 0.00086186,
    "MEAN_MOTION_DDOT": 0.0,
    "TLE_LINE1": "1 45551U 20025W   25315.12595400  .00086186  00000+0  97934-3 0  9994",
    "TLE_LINE2": "2 45551  53.0470 207.8969 0007574  91.5214 268.6667 15.61587694308225",
    "COMMENT": "Grouped by shell and plane from TLE"
  },
  {
    "OBJECT_NAME": "STARLINK-4469",
    "OBJECT_ID": "22105K",
    "EPOCH": "2025-11-11T05:51:07.562592",
    "MEAN_MOTION": 15.79091426,
    "ECCENTRICITY": 0.0001637,
    "INCLINATION": 97.6492,
    "RA_OF_ASC_NODE": 203.2532,
    "ARG_OF_PERICENTER": 114.9839,
    "MEAN_ANOMALY": 245.1598,
    "EPHEMERIS_TYPE": 0,
    "CLASSIFICATION_TYPE": "U",
    "NORAD_CAT_ID": 53657,
    "ELEMENT_SET_NO": 999,
    "REV_AT_EPOCH": 17600,
    "BSTAR": 6.7867e-05,
    "MEAN_MOTION_DOT": 0.00011891,
    "MEAN_MOTION_DDOT": 0.0,
    "TLE_LINE1": "1 53657U 22105K   25315.24383753  .00011891  00000+0  67867-4 0  9994",
    "TLE_LINE2": "2 53657  97.6492 203.2532 0001637 114.9839 245.1598 15.79091426176006",
    "COMMENT": "Grouped by shell and plane from TLE"
  },
  {
    "OBJECT_NAME": "STARLINK-30190",
    "OBJECT_ID": "23107Q",
    "EPOCH": "2025-11-11T08:00:03.000384",
    "MEAN_MOTION": 15.79958561,
    "ECCENTRICITY": 0.0032922,
    "INCLINATION": 42.9731,
    "RA_OF_ASC_NODE": 200.0664,
    "ARG_OF_PERICENTER": 227.0209,
    "MEAN_ANOMALY": 64.4033,
    "EPHEMERIS_TYPE": 0,
    "CLASSIFICATION_TYPE": "U",
    "NORAD_CAT_ID": 57471,
    "ELEMENT_SET_NO": 999,
    "REV_AT_EPOCH": 595,
    "BSTAR": 0.0012125,
    "MEAN_MOTION_DOT": 0.00247271,
    "MEAN_MOTION_DDOT": 0.0,
    "TLE_LINE1": "1 57471U 23107Q   25315.33336806  .00247271  00000+0  12125-2 0  9990",
    "TLE_LINE2": "2 57471  42.9731 200.0664 0032922 227.0209  64.4033 15.79958561  5955",
    "COMMENT": "Grouped by shell and plane from TLE"
  },
  {
    "OBJECT_NAME": "STARLINK-11239 [DTC]",
    "OBJECT_ID": "24155A",
    "EPOCH": "2025-11-11T02:42:33.957792",
    "MEAN_MOTION": 15.69697012,
    "ECCENTRICITY": 0.0001312,
    "INCLINATION": 53.1598,
    "RA_OF_ASC_NODE": 206.1572,
    "ARG_OF_PERICENTER": 137.6208,
    "MEAN_ANOMALY": 222.4912,
    "EPHEMERIS_TYPE": 0,
    "CLASSIFICATION_TYPE": "U",
    "NORAD_CAT_ID": 60924,
    "ELEMENT_SET_NO": 999,
    "REV_AT_EPOCH": 6977,
    "BSTAR": 4.230400000000001e-05,
    "MEAN_MOTION_DOT": 4.536e-05,
    "MEAN_MOTION_DDOT": 0.0,
    "TLE_LINE1": "1 60924U 24155A   25315.11289303  .00004536  00000+0  42304-4 0  9995",
    "TLE_LINE2": "2 60924  53.1598 206.1572 0001312 137.6208 222.4912 15.69697012 69778",
    "COMMENT": "Grouped by shell and plane from TLE"
  },
  {
    "OBJECT_NAME": "STARLINK-11245 [DTC]",
    "OBJECT_ID": "24155B",
    "EPOCH": "2025-11-10T23:17:59.855424",
    "MEAN_MOTION": 15.69715141,
    "ECCENTRICITY": 0.000128,
    "INCLINATION": 53.1595,
    "RA_OF_ASC_NODE": 206.6876,
    "ARG_OF_PERICENTER": 144.1219,
    "MEAN_ANOMALY": 215.9885,
    "EPHEMERIS_TYPE": 0,
    "CLASSIFICATION_TYPE": "U",
    "NORAD_CAT_ID": 60925,
    "ELEMENT_SET_NO": 999,
    "REV_AT_EPOCH": 6975,
    "BSTAR": 1.2919e-06,
    "MEAN_MOTION_DOT": -4.32e-06,
    "MEAN_MOTION_DDOT": 0.0,
    "TLE_LINE1": "1 60925U 24155B   25314.97083166 -.00000432  00000+0  12919-5 0  9990",
    "TLE_LINE2": "2 60925  53.1595 206.6876 0001280 144.1219 215.9885 15.69715141 69755",
    "COMMENT": "Grouped by shell and plane from TLE"
  },
  {
    "OBJECT_NAME": "STARLINK-11244 [DTC]",
    "OBJECT_ID": "24155C",
    "EPOCH": "2025-11-11T02:07:15.298464",
    "MEAN_MOTION": 15.6964108,
    "ECCENTRICITY": 0.0001771,
    "INCLINATION": 53.1607,
    "RA_OF_ASC_NODE": 205.9902,
    "ARG_OF_PERICENTER": 72.0052,
    "MEAN_ANOMALY": 288.1159,
    "EPHEMERIS_TYPE": 0,
    "CLASSIFICATION_TYPE": "U",
    "NORAD_CAT_ID": 60926,
    "ELEMENT_SET_NO": 999,
    "REV_AT_EPOCH": 6982,
    "BSTAR": 0.00012911000000000002,
    "MEAN_MOTION_DOT": 0.00015036,
    "MEAN_MOTION_DDOT": 0.0,
    "TLE_LINE1": "1 60926U 24155C   25315.08837151  .00015036  00000+0  12911-3 0  9990",
    "TLE_LINE2": "2 60926  53.1607 205.9902 0001771  72.0052 288.1159 15.69641080 69825",
    "COMMENT": "Grouped by shell and plane from TLE"
  },
  {
    "OBJECT_NAME": "STARLINK-11243 [DTC]",
    "OBJECT_ID": "24155D",
    "EPOCH": "2025-11-11T02:14:18.292128",
    "MEAN_MOTION": 15.6971759,
    "ECCENTRICITY": 0.0001024,
    "INCLINATION": 53.1598,
    "RA_OF_ASC_NODE": 206.0273,
    "ARG_OF_PERICENTER": 81.0012,
    "MEAN_ANOMALY": 279.1122,
    "EPHEMERIS_TYPE": 0,
    "CLASSIFICATION_TYPE": "U",
    "NORAD_CAT_ID": 60927,
    "ELEMENT_SET_NO": 999,
    "REV_AT_EPOCH": 6977,
    "BSTAR": 2.6164e-06,
    "MEAN_MOTION_DOT": -2.71e-06,
    "MEAN_MOTION_DDOT": 0.0,
    "TLE_LINE1": "1 60927U 24155D   25315.09326727 -.00000271  00000+0  26164-5 0  9997",
    "TLE_LINE2": "2 60927  53.1598 206.0273 0001024  81.0012 279.1122 15.69717590 69779",
    "COMMENT": "Grouped by shell and plane from TLE"
  },
  {
    "OBJECT_NAME": "STARLINK-11238 [DTC]",
    "OBJECT_ID": "24155E",
    "EPOCH": "2025-11-11T02:00:11.157408",
    "MEAN_MOTION": 15.69703852,
    "ECCENTRICITY": 0.0001302,
    "INCLINATION": 53.1587,
    "RA_OF_ASC_NODE": 205.9604,
    "ARG_OF_PERICENTER": 72.1169,
    "MEAN_ANOMALY": 287.9991,
    "EPHEMERIS_TYPE": 0,
    "CLASSIFICATION_TYPE": "U",
    "NORAD_CAT_ID": 60928,
    "ELEMENT_SET_NO": 999,
    "REV_AT_EPOCH": 6982,
    "BSTAR": 2.8556e-05,
    "MEAN_MOTION_DOT": 2.871e-05,
    "MEAN_MOTION_DDOT": 0.0,
    "TLE_LINE1": "1 60928U 24155E   25315.08346247  .00002871  00000+0  28556-4 0  9999",
    "TLE_LINE2": "2 60928  53.1587 205.9604 0001302  72.1169 287.9991 15.69703852 69820",
    "COMMENT": "Grouped by shell and plane from TLE"
  },
  {
    "OBJECT_NAME": "STARLINK-11240 [DTC]",
    "OBJECT_ID": "24155F",
    "EPOCH": "2025-11-11T01:53:06.882432",
    "MEAN_MOTION": 15.69716572,
    "ECCENTRICITY": 8.81e-05,
    "INCLINATION": 53.1592,
    "RA_OF_ASC_NODE": 205.9262,
    "ARG_OF_PERICENTER": 103.4102,
    "MEAN_ANOMALY": 256.7015,
    "EPHEMERIS_TYPE": 0,
    "CLASSIFICATION_TYPE": "U",
    "NORAD_CAT_ID": 60929,
    "ELEMENT_SET_NO": 999,
    "REV_AT_EPOCH": 6977,
    "BSTAR": 0.0,
    "MEAN_MOTION_DOT": -7.69e-06,
    "MEAN_MOTION_DDOT": 0.0,
    "TLE_LINE1": "1 60929U 24155F   25315.07855188 -.00000769  00000+0 -14922-5 0  9997",
    "TLE_LINE2": "2 60929  53.1592 205.9262 0000881 103.4102 256.7015 15.69716572 69771",
    "COMMENT": "Grouped by shell and plane from TLE"
  },
  {
    "OBJECT_NAME": "STARLINK-11251 [DTC]",
    "OBJECT_ID": "24155G",
    "EPOCH": "2025-11-11T01:46:03.163872",
    "MEAN_MOTION": 15.69707605,
    "ECCENTRICITY": 4.98e-05,
    "INCLINATION": 53.1588,
    "RA_OF_ASC_NODE": 205.8953,
    "ARG_OF_PERICENTER": 110.7177,
    "MEAN_ANOMALY": 249.3895,
    "EPHEMERIS_TYPE": 0,
    "CLASSIFICATION_TYPE": "U",
    "NORAD_CAT_ID": 60930,
    "ELEMENT_SET_NO": 999,
    "REV_AT_EPOCH": 6977,
    "BSTAR": 0.0,
    "MEAN_MOTION_DOT": -7.01e-06,
    "MEAN_MOTION_DDOT": 0.0,
    "TLE_LINE1": "1 60930U 24155G   25315.07364773 -.00000701  00000+0 -93336-6 0  9997",
    "TLE_LINE2": "2 60930  53.1588 205.8953 0000498 110.7177 249.3895 15.69707605 69772",
    "COMMENT": "Grouped by shell and plane from TLE"
  },
  {
    "OBJECT_NAME": "STARLINK-11204 [DTC]",
    "OBJECT_ID": "24155H",
    "EPOCH": "2025-11-11T01:38:58.964928",
    "MEAN_MOTION": 15.69714264,
    "ECCENTRICITY": 8.09e-05,
    "INCLINATION": 53.1584,
    "RA_OF_ASC_NODE": 205.8608,
    "ARG_OF_PERICENTER": 156.7296,
    "MEAN_ANOMALY": 203.3759,
    "EPHEMERIS_TYPE": 0,
    "CLASSIFICATION_TYPE": "U",
    "NORAD_CAT_ID": 60931,
    "ELEMENT_SET_NO": 999,
    "REV_AT_EPOCH": 6977,
    "BSTAR": 8.947100000000001e-06,
    "MEAN_MOTION_DOT": 4.96e-06,
    "MEAN_MOTION_DDOT": 0.0,
    "TLE_LINE1": "1 60931U 24155H   25315.06873802  .00000496  00000+0  89471-5 0  9998",
    "TLE_LINE2": "2 60931  53.1584 205.8608 0000809 156.7296 203.3759 15.69714264 69772",
    "COMMENT": "Grouped by shell and plane from TLE"
  },
  {
    "OBJECT_NAME": "STARLINK-11246 [DTC]",
    "OBJECT_ID": "24155J",
    "EPOCH": "2025-11-11T03:03:36.109728",
    "MEAN_MOTION": 15.69712707,
    "ECCENTRICITY": 0.0001087,
    "INCLINATION": 53.158,
    "RA_OF_ASC_NODE": 205.5148,
    "ARG_OF_PERICENTER": 65.1187,
    "MEAN_ANOMALY": 294.9944,
    "EPHEMERIS_TYPE": 0,
    "CLASSIFICATION_TYPE": "U",
    "NORAD_CAT_ID": 60932,
    "ELEMENT_SET_NO": 999,
    "REV_AT_EPOCH": 6978,
    "BSTAR": 9.6645e-06,
    "MEAN_MOTION_DOT": 5.82e-06,
    "MEAN_MOTION_DDOT": 0.0,
    "TLE_LINE1": "1 60932U 24155J   25315.12750127  .00000582  00000+0  96645-5 0  9997",
    "TLE_LINE2": "2 60932  53.1580 205.5148 0001087  65.1187 294.9944 15.69712707 69789",
    "COMMENT": "Grouped by shell and plane from TLE"
  },
  {
    "OBJECT_NAME": "STARLINK-11207 [DTC]",
    "OBJECT_ID": "24155K",
    "EPOCH": "2025-11-11T02:56:32.141472",
    "MEAN_MOTION": 15.69722384,
    "ECCENTRICITY": 0.0001123,
    "INCLINATION": 53.1567,
    "RA_OF_ASC_NODE": 205.482,
    "ARG_OF_PERICENTER": 65.6415,
    "MEAN_ANOMALY": 294.472,
    "EPHEMERIS_TYPE": 0,
    "CLASSIFICATION_TYPE": "U",
    "NORAD_CAT_ID": 60933,
    "ELEMENT_SET_NO": 999,
    "REV_AT_EPOCH": 6978,
    "BSTAR": 2.6073000000000003e-05,
    "MEAN_MOTION_DOT": 2.573e-05,
    "MEAN_MOTION_DDOT": 0.0,
    "TLE_LINE1": "1 60933U 24155K   25315.12259423  .00002573  00000+0  26073-4 0  9990",
    "TLE_LINE2": "2 60933  53.1567 205.4820 0001123  65.6415 294.4720 15.69722384 69780",
    "COMMENT": "Grouped by shell and plane from TLE"
  }
]